MBZ-SAT                 
1 62626U 25009T   26068.71170241 -.00000059  00000+0  33147-6 0  9991
2 62626  97.4030 149.1701 0002163 323.4829  36.6257 15.18507845 63599
HERMES-1                
1 63242U 25052AJ  26068.69342910  .00006601  00000+0  30413-3 0  9993
2 63242  97.4020 322.1122 0007734 159.5432 200.6114 15.20586525 54679
